ORBCOMM FM05            
1 25117U 97084F   24302.64383354  .00008971  00000+0  26279-2 0  9993
2 25117  45.0158  38.4796 0002655 194.1285 165.9491 14.44185930407113
ORBCOMM FM06            
1 25118U 97084G   24303.56270062  .00008953  00000+0  26139-2 0  9992
2 25118  45.0154  34.1118 0002613 218.6302 155.6588 14.44345877408186
ORBCOMM FM07            
1 25119U 97084H   24303.00967561  .00008787  00000+0  25730-2 0  9990
2 25119  45.0149  37.4211 0002763 178.6554 181.4304 14.44221354408097
ORBCOMM FM03            
1 25158U 98007B   24303.50081571  .00004907  00000+0  18050-2 0  9999
2 25158 107.9682  22.0700 0048530 290.4285  69.1647 14.33205964391112
ORBCOMM FM04            
1 25159U 98007C   24302.48025436  .00005267  00000+0  19283-2 0  9993
2 25159 107.9665  23.0348 0044120 289.6235  70.0145 14.33464396391007
ORBCOMM FM17            
1 25413U 98046A   24303.34989674  .00004903  00000+0  17877-2 0  9991
2 25413  44.9933 266.2904 0000326 134.7599 225.3274 14.34045385370199
ORBCOMM FM18            
1 25414U 98046B   24303.41484217  .00005766  00000+0  19680-2 0  9995
2 25414  44.9921 189.2468 0003683 194.2234 165.8510 14.37124393371206
ORBCOMM FM19            
1 25415U 98046C   24302.78442910  .00006541  00000+0  22344-2 0  9992
2 25415  44.9932 193.8778 0002385 179.1716 227.9814 14.36943226370905
